{
    "links": {
        "self": "http://www.neowsapp.com/rest/v1/neo/3650046?api_key=iIulBulltgU6a56xZRHN4H3l9WmuAYTsLGpBGhQ2"
    },
    "id": "3650046",
    "neo_reference_id": "3650046",
    "name": "(2013 TN69)",
    "designation": "2013 TN69",
    "nasa_jpl_url": "http://ssd.jpl.nasa.gov/sbdb.cgi?sstr=3650046",
    "absolute_magnitude_h": 23.3,
    "estimated_diameter": {
        "kilometers": {
            "estimated_diameter_min": 0.058150704,
            "estimated_diameter_max": 0.130028927
        },
        "meters": {
            "estimated_diameter_min": 58.1507039646,
            "estimated_diameter_max": 130.0289270043
        },
        "miles": {
            "estimated_diameter_min": 0.0361331611,
            "estimated_diameter_max": 0.0807962044
        },
        "feet": {
            "estimated_diameter_min": 190.7831555951,
            "estimated_diameter_max": 426.6041048727
        }
    },
    "is_potentially_hazardous_asteroid": false,
    "close_approach_data": [
        {
            "close_approach_date": "2009-12-28",
            "close_approach_date_full": "2009-Dec-28 13:25",
            "epoch_date_close_approach": 1262006700000,
            "relative_velocity": {
                "kilometers_per_second": "15.6760210868",
                "kilometers_per_hour": "56433.6759124307",
                "miles_per_hour": "35065.6915690323"
            },
            "miss_distance": {
                "astronomical": "0.3187902608",
                "lunar": "124.0094114512",
                "kilometers": "47690343.992424496",
                "miles": "29633405.6376142048"
            },
            "orbiting_body": "Earth"
        },
        {
            "close_approach_date": "2013-11-09",
            "close_approach_date_full": "2013-Nov-09 07:29",
            "epoch_date_close_approach": 1383982140000,
            "relative_velocity": {
                "kilometers_per_second": "7.5247841508",
                "kilometers_per_hour": "27089.2229428766",
                "miles_per_hour": "16832.1896669224"
            },
            "miss_distance": {
                "astronomical": "0.0833845227",
                "lunar": "32.4365793303",
                "kilometers": "12474146.986886649",
                "miles": "7751075.5155037962"
            },
            "orbiting_body": "Earth"
        },
        {
            "close_approach_date": "2017-10-01",
            "close_approach_date_full": "2017-Oct-01 10:41",
            "epoch_date_close_approach": 1506854460000,
            "relative_velocity": {
                "kilometers_per_second": "16.9489205389",
                "kilometers_per_hour": "61016.1139399712",
                "miles_per_hour": "37913.0403534227"
            },
            "miss_distance": {
                "astronomical": "0.3192859737",
                "lunar": "124.2022437693",
                "kilometers": "47764501.586396019",
                "miles": "29679485.0297783022"
            },
            "orbiting_body": "Earth"
        }
    ],
    "orbital_data": {
        "orbit_id": "17",
        "orbit_determination_date": "2017-04-06 08:44:14",
        "first_observation_date": "2013-10-08",
        "last_observation_date": "2013-12-07",
        "data_arc_in_days": 60,
        "observations_used": 55,
        "orbit_uncertainty": "6",
        "minimum_orbit_intersection": ".0825518",
        "jupiter_tisserand_invariant": "3.197",
        "epoch_osculation": "2459000.5",
        "eccentricity": ".5859910583224095",
        "semi_major_axis": "2.500227584619104",
        "inclination": "6.534342622684308",
        "ascending_node_longitude": "190.028455831536",
        "orbital_period": "1444.00181937697",
        "perihelion_distance": "1.035116576261274",
        "perihelion_argument": "226.0961019971405",
        "aphelion_distance": "3.965338592976935",
        "perihelion_time": "2459497.285577276029",
        "mean_anomaly": "236.1477960626574",
        "mean_motion": ".2493071651082308",
        "equinox": "J2000",
        "orbit_class": {
            "orbit_class_type": "AMO",
            "orbit_class_description": "Near-Earth asteroid orbits similar to that of 1221 Amor",
            "orbit_class_range": "1.017 AU < q (perihelion) < 1.3 AU"
        }
    },
    "is_sentry_object": false
}